COSMOS 2151             
1 21422U 91042A   26098.63198920  .00001981  00000+0  15606-3 0  9999
2 21422  82.4967  54.7858 0011306 325.3651  34.6835 15.00248784867685
SL-14 R/B               
1 21423U 91042B   26098.26623733  .00000435  00000+0  51896-4 0  9999
2 21423  82.4961 192.4557 0018039 140.3181 219.9357 14.81861179857457
ERS-1                   
1 21574U 91050A   26098.58682610  .00000297  00000+0  10942-3 0  9991
2 21574  98.7855 117.5702 0033050 112.9685 247.4995 14.39473858820034
ARIANE 40 R/B           
1 21610U 91050F   26098.56666821  .00000283  00000+0  97253-4 0  9992
2 21610  98.1951 149.6726 0002859   9.2636 350.8607 14.42917026823301
INTERCOSMOS 25          
1 21819U 91086A   26098.62099136  .00000904  00000+0  17107-3 0  9997
2 21819  82.6001 291.9097 1486121  52.4369 320.2608 12.12105068500315
SL-8 R/B                
1 21876U 92008B   26098.67111794  .00000045  00000+0  30050-4 0  9994
2 21876  82.9251 245.4708 0035617  52.4716 318.6399 13.75970065713542
SL-8 R/B                
1 21938U 92020B   26098.59836987  .00000009  00000+0 -58924-5 0  9998
2 21938  82.9283 131.5516 0028310 211.8778 260.4282 13.75550577705244
USA 81                  
1 21949U 92023A   26098.55780602  .00000169  00000+0  55166-4 0  9991
2 21949  85.0036 114.2013 0001368  73.8612 286.2731 14.32378298 99066
COSMOS 2219             
1 22219U 92076A   26098.58468861 -.00000091  00000+0 -23043-4 0  9998
2 22219  71.0597 315.5780 0017535 161.0612 199.1167 14.14088062722609
SL-16 R/B               
1 22220U 92076B   26098.50932755  .00000114  00000+0  80579-4 0  9991
2 22220  70.9978 125.5618 0011143  42.0819 119.5894 14.16862942726052
COSMOS 2221             
1 22236U 92080A   26098.66419820  .00001560  00000+0  13529-3 0  9999
2 22236  82.5023 250.3593 0015717  92.3455 267.9567 14.96340530785279
SL-16 R/B               
1 22285U 92093B   26098.56222567 -.00000213  00000+0 -84848-4 0  9995
2 22285  71.0211 301.5572 0006627 264.5770  95.4597 14.15455350717386
COSMOS 2228             
1 22286U 92094A   26098.59362058  .00002194  00000+0  18619-3 0  9990
2 22286  82.5200 208.6801 0017608 196.9663 163.0974 14.97360073780539
SL-16 R/B               
1 22566U 93016B   26098.60566912  .00000269  00000+0  16239-3 0  9990
2 22566  71.0070 152.3529 0012497 276.2097  83.7602 14.15311519706405
