[
  {
    "OBJECT_NAME": "COSMOS 2151",
    "OBJECT_ID": "1991-042A",
    "EPOCH": "2026-04-08T15:10:03.866880",
    "MEAN_MOTION": 15.00248784,
    "ECCENTRICITY": 0.00113062,
    "INCLINATION": 82.4967,
    "RA_OF_ASC_NODE": 54.7858,
    "ARG_OF_PERICENTER": 325.3651,
    "MEAN_ANOMALY": 34.6835,
    "EPHEMERIS_TYPE": 0,
    "CLASSIFICATION_TYPE": "U",
    "NORAD_CAT_ID": 21422,
    "ELEMENT_SET_NO": 999,
    "REV_AT_EPOCH": 86768,
    "BSTAR": 0.00015606313,
    "MEAN_MOTION_DOT": 1.981e-5,
    "MEAN_MOTION_DDOT": 0
  },
  {
    "OBJECT_NAME": "SL-14 R/B",
    "OBJECT_ID": "1991-042B",
    "EPOCH": "2026-04-08T06:23:22.905312",
    "MEAN_MOTION": 14.81861179,
    "ECCENTRICITY": 0.00180393,
    "INCLINATION": 82.4961,
    "RA_OF_ASC_NODE": 192.4557,
    "ARG_OF_PERICENTER": 140.3181,
    "MEAN_ANOMALY": 219.9357,
    "EPHEMERIS_TYPE": 0,
    "CLASSIFICATION_TYPE": "U",
    "NORAD_CAT_ID": 21423,
    "ELEMENT_SET_NO": 999,
    "REV_AT_EPOCH": 85745,
    "BSTAR": 5.1896267e-5,
    "MEAN_MOTION_DOT": 4.35e-6,
    "MEAN_MOTION_DDOT": 0
  },
  {
    "OBJECT_NAME": "ERS-1",
    "OBJECT_ID": "1991-050A",
    "EPOCH": "2026-04-08T14:05:01.775040",
    "MEAN_MOTION": 14.39473858,
    "ECCENTRICITY": 0.00330504,
    "INCLINATION": 98.7855,
    "RA_OF_ASC_NODE": 117.5702,
    "ARG_OF_PERICENTER": 112.9685,
    "MEAN_ANOMALY": 247.4995,
    "EPHEMERIS_TYPE": 0,
    "CLASSIFICATION_TYPE": "U",
    "NORAD_CAT_ID": 21574,
    "ELEMENT_SET_NO": 999,
    "REV_AT_EPOCH": 82003,
    "BSTAR": 0.00010942104,
    "MEAN_MOTION_DOT": 2.97e-6,
    "MEAN_MOTION_DDOT": 0
  },
  {
    "OBJECT_NAME": "ARIANE 40 R/B",
    "OBJECT_ID": "1991-050F",
    "EPOCH": "2026-04-08T13:36:00.133344",
    "MEAN_MOTION": 14.42917026,
    "ECCENTRICITY": 0.00028593,
    "INCLINATION": 98.1951,
    "RA_OF_ASC_NODE": 149.6726,
    "ARG_OF_PERICENTER": 9.2636,
    "MEAN_ANOMALY": 350.8607,
    "EPHEMERIS_TYPE": 0,
    "CLASSIFICATION_TYPE": "U",
    "NORAD_CAT_ID": 21610,
    "ELEMENT_SET_NO": 999,
    "REV_AT_EPOCH": 82330,
    "BSTAR": 9.7252881e-5,
    "MEAN_MOTION_DOT": 2.83e-6,
    "MEAN_MOTION_DDOT": 0
  },
  {
    "OBJECT_NAME": "INTERCOSMOS 25",
    "OBJECT_ID": "1991-086A",
    "EPOCH": "2026-04-08T14:54:13.653504",
    "MEAN_MOTION": 12.12105068,
    "ECCENTRICITY": 0.14861212,
    "INCLINATION": 82.6001,
    "RA_OF_ASC_NODE": 291.9097,
    "ARG_OF_PERICENTER": 52.4369,
    "MEAN_ANOMALY": 320.2608,
    "EPHEMERIS_TYPE": 0,
    "CLASSIFICATION_TYPE": "U",
    "NORAD_CAT_ID": 21819,
    "ELEMENT_SET_NO": 999,
    "REV_AT_EPOCH": 50031,
    "BSTAR": 0.00017107062,
    "MEAN_MOTION_DOT": 9.04e-6,
    "MEAN_MOTION_DDOT": 0
  },
  {
    "OBJECT_NAME": "SL-8 R/B",
    "OBJECT_ID": "1992-008B",
    "EPOCH": "2026-04-08T16:06:24.590016",
    "MEAN_MOTION": 13.75970065,
    "ECCENTRICITY": 0.00356175,
    "INCLINATION": 82.9251,
    "RA_OF_ASC_NODE": 245.4708,
    "ARG_OF_PERICENTER": 52.4716,
    "MEAN_ANOMALY": 318.6399,
    "EPHEMERIS_TYPE": 0,
    "CLASSIFICATION_TYPE": "U",
    "NORAD_CAT_ID": 21876,
    "ELEMENT_SET_NO": 999,
    "REV_AT_EPOCH": 71354,
    "BSTAR": 3.0049586e-5,
    "MEAN_MOTION_DOT": 4.5e-7,
    "MEAN_MOTION_DDOT": 0
  },
  {
    "OBJECT_NAME": "SL-8 R/B",
    "OBJECT_ID": "1992-020B",
    "EPOCH": "2026-04-08T14:21:39.156768",
    "MEAN_MOTION": 13.75550577,
    "ECCENTRICITY": 0.00283105,
    "INCLINATION": 82.9283,
    "RA_OF_ASC_NODE": 131.5516,
    "ARG_OF_PERICENTER": 211.8778,
    "MEAN_ANOMALY": 260.4282,
    "EPHEMERIS_TYPE": 0,
    "CLASSIFICATION_TYPE": "U",
    "NORAD_CAT_ID": 21938,
    "ELEMENT_SET_NO": 999,
    "REV_AT_EPOCH": 70524,
    "BSTAR": -5.892393e-6,
    "MEAN_MOTION_DOT": 9.0e-8,
    "MEAN_MOTION_DDOT": 0
  },
  {
    "OBJECT_NAME": "USA 81",
    "OBJECT_ID": "1992-023A",
    "EPOCH": "2026-04-08T13:23:14.440128",
    "MEAN_MOTION": 14.32378298,
    "ECCENTRICITY": 0.00013684,
    "INCLINATION": 85.0036,
    "RA_OF_ASC_NODE": 114.2013,
    "ARG_OF_PERICENTER": 73.8612,
    "MEAN_ANOMALY": 286.2731,
    "EPHEMERIS_TYPE": 0,
    "CLASSIFICATION_TYPE": "U",
    "NORAD_CAT_ID": 21949,
    "ELEMENT_SET_NO": 999,
    "REV_AT_EPOCH": 9906,
    "BSTAR": 5.5165994e-5,
    "MEAN_MOTION_DOT": 1.69e-6,
    "MEAN_MOTION_DDOT": 0
  },
  {
    "OBJECT_NAME": "COSMOS 2219",
    "OBJECT_ID": "1992-076A",
    "EPOCH": "2026-04-08T14:01:57.095904",
    "MEAN_MOTION": 14.14088062,
    "ECCENTRICITY": 0.00175354,
    "INCLINATION": 71.0597,
    "RA_OF_ASC_NODE": 315.578,
    "ARG_OF_PERICENTER": 161.0612,
    "MEAN_ANOMALY": 199.1167,
    "EPHEMERIS_TYPE": 0,
    "CLASSIFICATION_TYPE": "U",
    "NORAD_CAT_ID": 22219,
    "ELEMENT_SET_NO": 999,
    "REV_AT_EPOCH": 72260,
    "BSTAR": -2.3042703e-5,
    "MEAN_MOTION_DOT": -9.1e-7,
    "MEAN_MOTION_DDOT": 0
  },
  {
    "OBJECT_NAME": "SL-16 R/B",
    "OBJECT_ID": "1992-076B",
    "EPOCH": "2026-04-08T12:13:25.900320",
    "MEAN_MOTION": 14.16862942,
    "ECCENTRICITY": 0.00111439,
    "INCLINATION": 70.9978,
    "RA_OF_ASC_NODE": 125.5618,
    "ARG_OF_PERICENTER": 42.0819,
    "MEAN_ANOMALY": 119.5894,
    "EPHEMERIS_TYPE": 0,
    "CLASSIFICATION_TYPE": "U",
    "NORAD_CAT_ID": 22220,
    "ELEMENT_SET_NO": 999,
    "REV_AT_EPOCH": 72605,
    "BSTAR": 8.0579083e-5,
    "MEAN_MOTION_DOT": 1.14e-6,
    "MEAN_MOTION_DDOT": 0
  },
  {
    "OBJECT_NAME": "COSMOS 2221",
    "OBJECT_ID": "1992-080A",
    "EPOCH": "2026-04-08T15:56:26.724480",
    "MEAN_MOTION": 14.9634053,
    "ECCENTRICITY": 0.00157177,
    "INCLINATION": 82.5023,
    "RA_OF_ASC_NODE": 250.3593,
    "ARG_OF_PERICENTER": 92.3455,
    "MEAN_ANOMALY": 267.9567,
    "EPHEMERIS_TYPE": 0,
    "CLASSIFICATION_TYPE": "U",
    "NORAD_CAT_ID": 22236,
    "ELEMENT_SET_NO": 999,
    "REV_AT_EPOCH": 78527,
    "BSTAR": 0.0001352947,
    "MEAN_MOTION_DOT": 1.56e-5,
    "MEAN_MOTION_DDOT": 0
  },
  {
    "OBJECT_NAME": "SL-16 R/B",
    "OBJECT_ID": "1992-093B",
    "EPOCH": "2026-04-08T13:29:36.297888",
    "MEAN_MOTION": 14.1545535,
    "ECCENTRICITY": 0.00066279,
    "INCLINATION": 71.0211,
    "RA_OF_ASC_NODE": 301.5572,
    "ARG_OF_PERICENTER": 264.577,
    "MEAN_ANOMALY": 95.4597,
    "EPHEMERIS_TYPE": 0,
    "CLASSIFICATION_TYPE": "U",
    "NORAD_CAT_ID": 22285,
    "ELEMENT_SET_NO": 999,
    "REV_AT_EPOCH": 71738,
    "BSTAR": -8.4847843e-5,
    "MEAN_MOTION_DOT": -2.13e-6,
    "MEAN_MOTION_DDOT": 0
  },
  {
    "OBJECT_NAME": "COSMOS 2228",
    "OBJECT_ID": "1992-094A",
    "EPOCH": "2026-04-08T14:14:48.818112",
    "MEAN_MOTION": 14.97360073,
    "ECCENTRICITY": 0.00176089,
    "INCLINATION": 82.52,
    "RA_OF_ASC_NODE": 208.6801,
    "ARG_OF_PERICENTER": 196.9663,
    "MEAN_ANOMALY": 163.0974,
    "EPHEMERIS_TYPE": 0,
    "CLASSIFICATION_TYPE": "U",
    "NORAD_CAT_ID": 22286,
    "ELEMENT_SET_NO": 999,
    "REV_AT_EPOCH": 78053,
    "BSTAR": 0.00018618962,
    "MEAN_MOTION_DOT": 2.194e-5,
    "MEAN_MOTION_DDOT": 0
  },
  {
    "OBJECT_NAME": "SL-16 R/B",
    "OBJECT_ID": "1993-016B",
    "EPOCH": "2026-04-08T14:32:09.811968",
    "MEAN_MOTION": 14.15311519,
    "ECCENTRICITY": 0.00124974,
    "INCLINATION": 71.007,
    "RA_OF_ASC_NODE": 152.3529,
    "ARG_OF_PERICENTER": 276.2097,
    "MEAN_ANOMALY": 83.7602,
    "EPHEMERIS_TYPE": 0,
    "CLASSIFICATION_TYPE": "U",
    "NORAD_CAT_ID": 22566,
    "ELEMENT_SET_NO": 999,
    "REV_AT_EPOCH": 70640,
    "BSTAR": 0.00016238991,
    "MEAN_MOTION_DOT": 2.69e-6,
    "MEAN_MOTION_DDOT": 0
  }
]
